{"type": "FeatureCollection", "features": [ {"type": "Feature", "properties": {"norad_id": 32289, "name": "YAOGAN-3", "group": "resource", "lat": -35.11078407698581, "lon": -157.83442071396, "alt_km": 605.0352331910299, "timestamp": "2025-12-27T05:29:38.850758+00:00", "meta": {"OBJECT_NAME": "YAOGAN-3", "OBJECT_ID": "2007-055A", "EPOCH": "2025-12-26T23:41:42.010656", "MEAN_MOTION": 14.8992561, "ECCENTRICITY": 0.0001183, "INCLINATION": 97.8358, "RA_OF_ASC_NODE": 27.4825, "ARG_OF_PERICENTER": 82.4994, "MEAN_ANOMALY": 277.6358, "EPHEMERIS_TYPE": 0, "CLASSIFICATION_TYPE": "U", "NORAD_CAT_ID": 32289, "ELEMENT_SET_NO": 999, "REV_AT_EPOCH": 98021, "BSTAR": 0.00010197392, "MEAN_MOTION_DOT": 9.26e-06, "MEAN_MOTION_DDOT": 0}, "tle": {"line1": "1 32289U 07055A   25360.98729179  .00000926  00000+0  10197-3 0  9996", "line2": "2 32289  97.8358  27.4825 0001183  82.4994 277.6358 14.89925610980216"}}, "geometry": {"type": "Point", "coordinates": [-157.83442071396, -35.11078407698581]}}, {"type": "Feature", "properties": {"norad_id": 32376, "name": "COSMO-SKYMED 2", "group": "resource", "lat": 81.98371840296862, "lon": 81.92221667877268, "alt_km": 614.1553595969917, "timestamp": "2025-12-27T05:29:38.850769+00:00", "meta": {"OBJECT_NAME": "COSMO-SKYMED 2", "OBJECT_ID": "2007-059A", "EPOCH": "2025-12-26T22:36:07.958592", "MEAN_MOTION": 14.82160271, "ECCENTRICITY": 0.00012932, "INCLINATION": 97.8807, "RA_OF_ASC_NODE": 182.0518, "ARG_OF_PERICENTER": 83.1684, "MEAN_ANOMALY": 276.9676, "EPHEMERIS_TYPE": 0, "CLASSIFICATION_TYPE": "U", "NORAD_CAT_ID": 32376, "ELEMENT_SET_NO": 999, "REV_AT_EPOCH": 97648, "BSTAR": 8.479031e-05, "MEAN_MOTION_DOT": 6.23e-06, "MEAN_MOTION_DDOT": 0}, "tle": {"line1": "1 32376U 07059A   25360.94175878  .00000623  00000+0  84790-4 0  9999", "line2": "2 32376  97.8807 182.0518 0001293  83.1684 276.9676 14.82160271976481"}}, "geometry": {"type": "Point", "coordinates": [81.92221667877268, 81.98371840296862]}}, {"type": "Feature", "properties": {"norad_id": 32382, "name": "RADARSAT-2", "group": "resource", "lat": -23.54082091688977, "lon": -178.16319085016698, "alt_km": 797.5928052380132, "timestamp": "2025-12-27T05:29:38.850780+00:00", "meta": {"OBJECT_NAME": "RADARSAT-2", "OBJECT_ID": "2007-061A", "EPOCH": "2025-12-26T23:30:23.914080", "MEAN_MOTION": 14.29985449, "ECCENTRICITY": 0.00011345, "INCLINATION": 98.5801, "RA_OF_ASC_NODE": 5.3623, "ARG_OF_PERICENTER": 86.4478, "MEAN_ANOMALY": 273.6834, "EPHEMERIS_TYPE": 0, "CLASSIFICATION_TYPE": "U", "NORAD_CAT_ID": 32382, "ELEMENT_SET_NO": 999, "REV_AT_EPOCH": 94134, "BSTAR": 2.7880353e-05, "MEAN_MOTION_DOT": 2.8e-07, "MEAN_MOTION_DDOT": 0}, "tle": {"line1": "1 32382U 07061A   25360.97944345  .00000028  00000+0  27880-4 0  9991", "line2": "2 32382  98.5801   5.3623 0001134  86.4478 273.6834 14.29985449941345"}}, "geometry": {"type": "Point", "coordinates": [-178.16319085016698, -23.54082091688977]}}, {"type": "Feature", "properties": {"norad_id": 32783, "name": "CARTOSAT-2A", "group": "resource", "lat": 63.01112989203517, "lon": 35.002919931494425, "alt_km": 628.8299011929175, "timestamp": "2025-12-27T05:29:38.850790+00:00", "meta": {"OBJECT_NAME": "CARTOSAT-2A", "OBJECT_ID": "2008-021A", "EPOCH": "2025-12-26T22:42:37.951776", "MEAN_MOTION": 14.78954627, "ECCENTRICITY": 0.00108431, "INCLINATION": 97.7908, "RA_OF_ASC_NODE": 50.324, "ARG_OF_PERICENTER": 317.0772, "MEAN_ANOMALY": 42.9592, "EPHEMERIS_TYPE": 0, "CLASSIFICATION_TYPE": "U", "NORAD_CAT_ID": 32783, "ELEMENT_SET_NO": 999, "REV_AT_EPOCH": 95334, "BSTAR": 4.2188554e-05, "MEAN_MOTION_DOT": 2.61e-06, "MEAN_MOTION_DDOT": 0}, "tle": {"line1": "1 32783U 08021A   25360.94627259  .00000261  00000+0  42189-4 0  9990", "line2": "2 32783  97.7908  50.3240 0010843 317.0772  42.9592 14.78954627953340"}}, "geometry": {"type": "Point", "coordinates": [35.002919931494425, 63.01112989203517]}}, {"type": "Feature", "properties": {"norad_id": 33320, "name": "HUANJING 1A (HJ-1A)", "group": "resource", "lat": 17.697347260756242, "lon": 171.3827924821378, "alt_km": 632.182975994755, "timestamp": "2025-12-27T05:29:38.850800+00:00", "meta": {"OBJECT_NAME": "HUANJING 1A (HJ-1A)", "OBJECT_ID": "2008-041A", "EPOCH": "2025-12-26T23:54:33.859008", "MEAN_MOTION": 14.83439235, "ECCENTRICITY": 0.0019003, "INCLINATION": 97.6555, "RA_OF_ASC_NODE": 348.6999, "ARG_OF_PERICENTER": 348.6851, "MEAN_ANOMALY": 11.3933, "EPHEMERIS_TYPE": 0, "CLASSIFICATION_TYPE": "U", "NORAD_CAT_ID": 33320, "ELEMENT_SET_NO": 999, "REV_AT_EPOCH": 93287, "BSTAR": 0.00024177131, "MEAN_MOTION_DOT": 1.94e-05, "MEAN_MOTION_DDOT": 0}, "tle": {"line1": "1 33320U 08041A   25360.99622522  .00001940  00000+0  24177-3 0  9994", "line2": "2 33320  97.6555 348.6999 0019003 348.6851  11.3933 14.83439235932877"}}, "geometry": {"type": "Point", "coordinates": [171.3827924821378, 17.697347260756242]}}, {"type": "Feature", "properties": {"norad_id": 33321, "name": "HUANJING 1B (HJ-1B)", "group": "resource", "lat": -7.257405420096982, "lon": -6.438472711250283, "alt_km": 603.1653824305222, "timestamp": "2025-12-27T05:29:38.850810+00:00", "meta": {"OBJECT_NAME": "HUANJING 1B (HJ-1B)", "OBJECT_ID": "2008-041B", "EPOCH": "2025-12-26T23:02:56.150304", "MEAN_MOTION": 14.82860511, "ECCENTRICITY": 0.00376229, "INCLINATION": 97.6413, "RA_OF_ASC_NODE": 352.3252, "ARG_OF_PERICENTER": 30.6752, "MEAN_ANOMALY": 329.665, "EPHEMERIS_TYPE": 0, "CLASSIFICATION_TYPE": "U", "NORAD_CAT_ID": 33321, "ELEMENT_SET_NO": 999, "REV_AT_EPOCH": 93288, "BSTAR": 0.00021365759, "MEAN_MOTION_DOT": 1.7e-05, "MEAN_MOTION_DDOT": 0}, "tle": {"line1": "1 33321U 08041B   25360.96037211  .00001700  00000+0  21366-3 0  9998", "line2": "2 33321  97.6413 352.3252 0037622  30.6752 329.6650 14.82860511932886"}}, "geometry": {"type": "Point", "coordinates": [-6.438472711250283, -7.257405420096982]}}, {"type": "Feature", "properties": {"norad_id": 33331, "name": "GEOEYE 1", "group": "resource", "lat": 62.45172468057104, "lon": -91.78256578253735, "alt_km": 672.5011768939839, "timestamp": "2025-12-27T05:29:38.850821+00:00", "meta": {"OBJECT_NAME": "GEOEYE 1", "OBJECT_ID": "2008-042A", "EPOCH": "2025-12-26T22:24:23.018400", "MEAN_MOTION": 14.64719571, "ECCENTRICITY": 0.00030851, "INCLINATION": 98.1235, "RA_OF_ASC_NODE": 72.0343, "ARG_OF_PERICENTER": 223.7241, "MEAN_ANOMALY": 136.3718, "EPHEMERIS_TYPE": 0, "CLASSIFICATION_TYPE": "U", "NORAD_CAT_ID": 33331, "ELEMENT_SET_NO": 999, "REV_AT_EPOCH": 92493, "BSTAR": 0.00013951811, "MEAN_MOTION_DOT": 6.95e-06, "MEAN_MOTION_DDOT": 0}, "tle": {"line1": "1 33331U 08042A   25360.93359975  .00000695  00000+0  13952-3 0  9995", "line2": "2 33331  98.1235  72.0343 0003085 223.7241 136.3718 14.64719571924930"}}, "geometry": {"type": "Point", "coordinates": [-91.78256578253735, 62.45172468057104]}}, {"type": "Feature", "properties": {"norad_id": 33396, "name": "THEOS", "group": "resource", "lat": 10.767725182833841, "lon": -119.46465071225363, "alt_km": 826.2334472841248, "timestamp": "2025-12-27T05:29:38.850831+00:00", "meta": {"OBJECT_NAME": "THEOS", "OBJECT_ID": "2008-049A", "EPOCH": "2025-12-26T23:37:41.051424", "MEAN_MOTION": 14.20099159, "ECCENTRICITY": 0.0001209, "INCLINATION": 98.5843, "RA_OF_ASC_NODE": 58.6521, "ARG_OF_PERICENTER": 92.866, "MEAN_ANOMALY": 267.2655, "EPHEMERIS_TYPE": 0, "CLASSIFICATION_TYPE": "U", "NORAD_CAT_ID": 33396, "ELEMENT_SET_NO": 999, "REV_AT_EPOCH": 89352, "BSTAR": -2.8961804e-05, "MEAN_MOTION_DOT": -1.04e-06, "MEAN_MOTION_DDOT": 0}, "tle": {"line1": "1 33396U 08049A   25360.98450291 -.00000104  00000+0 -28962-4 0  9996", "line2": "2 33396  98.5843  58.6521 0001209  92.8660 267.2655 14.20099159893523"}}, "geometry": {"type": "Point", "coordinates": [-119.46465071225363, 10.767725182833841]}}, {"type": "Feature", "properties": {"norad_id": 33412, "name": "COSMO-SKYMED 3", "group": "resource", "lat": 19.22555939142469, "lon": -150.8899411680314, "alt_km": 553.4587738079636, "timestamp": "2025-12-27T05:29:38.850842+00:00", "meta": {"OBJECT_NAME": "COSMO-SKYMED 3", "OBJECT_ID": "2008-054A", "EPOCH": "2025-12-26T23:01:38.417952", "MEAN_MOTION": 15.05480283, "ECCENTRICITY": 0.00171282, "INCLINATION": 97.845, "RA_OF_ASC_NODE": 211.5922, "ARG_OF_PERICENTER": 126.1106, "MEAN_ANOMALY": 234.1709, "EPHEMERIS_TYPE": 0, "CLASSIFICATION_TYPE": "U", "NORAD_CAT_ID": 33412, "ELEMENT_SET_NO": 999, "REV_AT_EPOCH": 93101, "BSTAR": 0.00047591702, "MEAN_MOTION_DOT": 6.8e-05, "MEAN_MOTION_DDOT": 0}, "tle": {"line1": "1 33412U 08054A   25360.95947243  .00006800  00000+0  47592-3 0  9992", "line2": "2 33412  97.8450 211.5922 0017128 126.1106 234.1709 15.05480283931012"}}, "geometry": {"type": "Point", "coordinates": [-150.8899411680314, 19.22555939142469]}}, {"type": "Feature", "properties": {"norad_id": 33446, "name": "YAOGAN-4", "group": "resource", "lat": -75.56462855599176, "lon": 78.44981970270314, "alt_km": 619.2598803465899, "timestamp": "2025-12-27T05:29:38.850853+00:00", "meta": {"OBJECT_NAME": "YAOGAN-4", "OBJECT_ID": "2008-061A", "EPOCH": "2025-12-26T18:36:57.311712", "MEAN_MOTION": 14.82723581, "ECCENTRICITY": 0.00129631, "INCLINATION": 97.9198, "RA_OF_ASC_NODE": 290.7385, "ARG_OF_PERICENTER": 273.4167, "MEAN_ANOMALY": 86.5564, "EPHEMERIS_TYPE": 0, "CLASSIFICATION_TYPE": "U", "NORAD_CAT_ID": 33446, "ELEMENT_SET_NO": 999, "REV_AT_EPOCH": 92011, "BSTAR": 0.00019776049, "MEAN_MOTION_DOT": 1.545e-05, "MEAN_MOTION_DDOT": 0}, "tle": {"line1": "1 33446U 08061A   25360.77566333  .00001545  00000+0  19776-3 0  9998", "line2": "2 33446  97.9198 290.7385 0012963 273.4167  86.5564 14.82723581920118"}}, "geometry": {"type": "Point", "coordinates": [78.44981970270314, -75.56462855599176]}}]}